{
  "type": "FeatureCollection",
  "features": [
    {
      "type": "Feature",
      "properties": {
        "norad_id": 34492,
        "name": "IRIDIUM 33 DEB",
        "group": "iridium-33-debris",
        "lat": 38.04557932381147,
        "lon": -21.848868614079834,
        "alt_km": 925.1827473159638,
        "timestamp": "2025-12-10T20:49:52.938010+00:00",
        "meta_object_name": "IRIDIUM 33 DEB",
        "meta_object_id": "1997-051GH",
        "meta_epoch": "2025-12-10T11:09:51.703200",
        "meta_mean_motion": 14.25634536,
        "meta_eccentricity": 0.01891979,
        "meta_inclination": 86.473,
        "meta_ra_of_asc_node": 335.5473,
        "meta_arg_of_pericenter": 245.5701,
        "meta_mean_anomaly": 245.7256,
        "meta_ephemeris_type": 0,
        "meta_classification_type": "U",
        "meta_norad_cat_id": 34492,
        "meta_element_set_no": 999,
        "meta_rev_at_epoch": 85026,
        "meta_bstar": 0.0074682378,
        "meta_mean_motion_dot": 0.00021406,
        "meta_mean_motion_ddot": 0,
        "tle_line1": "1 34492U 97051GH  25344.46518175  .00021406  00000+0  74682-2 0  9990",
        "tle_line2": "2 34492  86.4730 335.5473 0189197 245.5701 245.7256 14.25634536850262"
      },
      "geometry": {
        "type": "Point",
        "coordinates": [
          -21.848868614079834,
          38.04557932381147
        ]
      }
    },
    {
      "type": "Feature",
      "properties": {
        "norad_id": 34497,
        "name": "IRIDIUM 33 DEB",
        "group": "iridium-33-debris",
        "lat": -81.96768662101944,
        "lon": -99.32795513667254,
        "alt_km": 800.2273968732916,
        "timestamp": "2025-12-10T20:49:52.938020+00:00",
        "meta_object_name": "IRIDIUM 33 DEB",
        "meta_object_id": "1997-051GN",
        "meta_epoch": "2025-12-10T04:35:23.086752",
        "meta_mean_motion": 14.2744131,
        "meta_eccentricity": 0.00790645,
        "meta_inclination": 86.2779,
        "meta_ra_of_asc_node": 53.4903,
        "meta_arg_of_pericenter": 347.8917,
        "meta_mean_anomaly": 40.4515,
        "meta_ephemeris_type": 0,
        "meta_classification_type": "U",
        "meta_norad_cat_id": 34497,
        "meta_element_set_no": 999,
        "meta_rev_at_epoch": 86847,
        "meta_bstar": 0.00082191095,
        "meta_mean_motion_dot": 2.102e-05,
        "meta_mean_motion_ddot": 0,
        "tle_line1": "1 34497U 97051GN  25344.19123943  .00002102  00000+0  82191-3 0  9997",
        "tle_line2": "2 34497  86.2779  53.4903 0079064 347.8917  40.4515 14.27441310868476"
      },
      "geometry": {
        "type": "Point",
        "coordinates": [
          -99.32795513667254,
          -81.96768662101944
        ]
      }
    },
    {
      "type": "Feature",
      "properties": {
        "norad_id": 34508,
        "name": "IRIDIUM 33 DEB",
        "group": "iridium-33-debris",
        "lat": -11.93050231005227,
        "lon": 102.667936473511,
        "alt_km": 814.5955087501707,
        "timestamp": "2025-12-10T20:49:52.938031+00:00",
        "meta_object_name": "IRIDIUM 33 DEB",
        "meta_object_id": "1997-051GZ",
        "meta_epoch": "2025-12-10T09:12:01.319040",
        "meta_mean_motion": 14.38393247,
        "meta_eccentricity": 0.00660379,
        "meta_inclination": 86.3701,
        "meta_ra_of_asc_node": 103.6419,
        "meta_arg_of_pericenter": 180.4805,
        "meta_mean_anomaly": 179.6341,
        "meta_ephemeris_type": 0,
        "meta_classification_type": "U",
        "meta_norad_cat_id": 34508,
        "meta_element_set_no": 999,
        "meta_rev_at_epoch": 87275,
        "meta_bstar": 0.0023927243,
        "meta_mean_motion_dot": 7.501e-05,
        "meta_mean_motion_ddot": 0,
        "tle_line1": "1 34508U 97051GZ  25344.38334860  .00007501  00000+0  23927-2 0  9992",
        "tle_line2": "2 34508  86.3701 103.6419 0066037 180.4805 179.6341 14.38393247872753"
      },
      "geometry": {
        "type": "Point",
        "coordinates": [
          102.667936473511,
          -11.93050231005227
        ]
      }
    },
    {
      "type": "Feature",
      "properties": {
        "norad_id": 34521,
        "name": "IRIDIUM 33 DEB",
        "group": "iridium-33-debris",
        "lat": -2.11698140795464,
        "lon": 31.23784015260838,
        "alt_km": 686.3807561044478,
        "timestamp": "2025-12-10T20:49:52.938041+00:00",
        "meta_object_name": "IRIDIUM 33 DEB",
        "meta_object_id": "1997-051HN",
        "meta_epoch": "2025-12-10T14:16:35.180832",
        "meta_mean_motion": 14.63336597,
        "meta_eccentricity": 0.00013221,
        "meta_inclination": 86.3801,
        "meta_ra_of_asc_node": 31.4921,
        "meta_arg_of_pericenter": 228.2808,
        "meta_mean_anomaly": 131.8291,
        "meta_ephemeris_type": 0,
        "meta_classification_type": "U",
        "meta_norad_cat_id": 34521,
        "meta_element_set_no": 999,
        "meta_rev_at_epoch": 88441,
        "meta_bstar": 0.001370832,
        "meta_mean_motion_dot": 7.099e-05,
        "meta_mean_motion_ddot": 0,
        "tle_line1": "1 34521U 97051HN  25344.59485163  .00007099  00000+0  13708-2 0  9991",
        "tle_line2": "2 34521  86.3801  31.4921 0001322 228.2808 131.8291 14.63336597884418"
      },
      "geometry": {
        "type": "Point",
        "coordinates": [
          31.23784015260838,
          -2.11698140795464
        ]
      }
    },
    {
      "type": "Feature",
      "properties": {
        "norad_id": 34525,
        "name": "IRIDIUM 33 DEB",
        "group": "iridium-33-debris",
        "lat": -45.38713031901645,
        "lon": 43.95612954340671,
        "alt_km": 759.6694621943898,
        "timestamp": "2025-12-10T20:49:52.938051+00:00",
        "meta_object_name": "IRIDIUM 33 DEB",
        "meta_object_id": "1997-051HS",
        "meta_epoch": "2025-12-10T15:05:26.627424",
        "meta_mean_motion": 14.42897814,
        "meta_eccentricity": 0.00067023,
        "meta_inclination": 86.3728,
        "meta_ra_of_asc_node": 47.7446,
        "meta_arg_of_pericenter": 100.2162,
        "meta_mean_anomaly": 52.7315,
        "meta_ephemeris_type": 0,
        "meta_classification_type": "U",
        "meta_norad_cat_id": 34525,
        "meta_element_set_no": 999,
        "meta_rev_at_epoch": 88057,
        "meta_bstar": 0.00056976145,
        "meta_mean_motion_dot": 1.923e-05,
        "meta_mean_motion_ddot": 0,
        "tle_line1": "1 34525U 97051HS  25344.62878041  .00001923  00000+0  56976-3 0  9995",
        "tle_line2": "2 34525  86.3728  47.7446 0006702 100.2162  52.7315 14.42897814880573"
      },
      "geometry": {
        "type": "Point",
        "coordinates": [
          43.95612954340671,
          -45.38713031901645
        ]
      }
    },
    {
      "type": "Feature",
      "properties": {
        "norad_id": 34529,
        "name": "IRIDIUM 33 DEB",
        "group": "iridium-33-debris",
        "lat": -44.833064723096854,
        "lon": -140.1659586562567,
        "alt_km": 760.8656565636466,
        "timestamp": "2025-12-10T20:49:52.938062+00:00",
        "meta_object_name": "IRIDIUM 33 DEB",
        "meta_object_id": "1997-051HW",
        "meta_epoch": "2025-12-10T09:47:19.468608",
        "meta_mean_motion": 14.40613002,
        "meta_eccentricity": 0.00045041,
        "meta_inclination": 86.3643,
        "meta_ra_of_asc_node": 36.4059,
        "meta_arg_of_pericenter": 184.9511,
        "meta_mean_anomaly": 175.1644,
        "meta_ephemeris_type": 0,
        "meta_classification_type": "U",
        "meta_norad_cat_id": 34529,
        "meta_element_set_no": 999,
        "meta_rev_at_epoch": 88108,
        "meta_bstar": 0.00018099831,
        "meta_mean_motion_dot": 5.97e-06,
        "meta_mean_motion_ddot": 0,
        "tle_line1": "1 34529U 97051HW  25344.40786422  .00000597  00000+0  18100-3 0  9999",
        "tle_line2": "2 34529  86.3643  36.4059 0004504 184.9511 175.1644 14.40613002881088"
      },
      "geometry": {
        "type": "Point",
        "coordinates": [
          -140.1659586562567,
          -44.833064723096854
        ]
      }
    },
    {
      "type": "Feature",
      "properties": {
        "norad_id": 34538,
        "name": "IRIDIUM 33 DEB",
        "group": "iridium-33-debris",
        "lat": 48.43022853833314,
        "lon": 10.585569537066133,
        "alt_km": 739.0755721772875,
        "timestamp": "2025-12-10T20:49:52.938072+00:00",
        "meta_object_name": "IRIDIUM 33 DEB",
        "meta_object_id": "1997-051JF",
        "meta_epoch": "2025-12-10T12:59:24.609120",
        "meta_mean_motion": 14.42626981,
        "meta_eccentricity": 0.00330544,
        "meta_inclination": 86.2772,
        "meta_ra_of_asc_node": 6.5186,
        "meta_arg_of_pericenter": 335.5091,
        "meta_mean_anomaly": 177.0552,
        "meta_ephemeris_type": 0,
        "meta_classification_type": "U",
        "meta_norad_cat_id": 34538,
        "meta_element_set_no": 999,
        "meta_rev_at_epoch": 87724,
        "meta_bstar": 0.0013643551,
        "meta_mean_motion_dot": 4.581e-05,
        "meta_mean_motion_ddot": 0,
        "tle_line1": "1 34538U 97051JF  25344.54125705  .00004581  00000+0  13644-2 0  9999",
        "tle_line2": "2 34538  86.2772   6.5186 0033054 335.5091 177.0552 14.42626981877242"
      },
      "geometry": {
        "type": "Point",
        "coordinates": [
          10.585569537066133,
          48.43022853833314
        ]
      }
    }
  ]
}